{"fetched_at":"2026-03-29T16:36:15Z","count":15609,"tles":[{"name":"STARLINK-11348 [DTC]","line1":"1 61694U 24195H   26087.85042482 -.00000944  00000+0 -29435-5 0  9999","line2":"2 61694  53.1593 291.7533 0000675  94.3411 265.7684 15.69701188 82042","category":"Starlink"}]}